[{"OBJECT_NAME":"APRIZESAT 3","OBJECT_ID":"2009-041F","EPOCH":"2026-03-09T21:53:07.275264","MEAN_MOTION":14.95902996,"ECCENTRICITY":0.00628853,"INCLINATION":98.1904,"RA_OF_ASC_NODE":217.4844,"ARG_OF_PERICENTER":35.8471,"MEAN_ANOMALY":324.6944,"EPHEMERIS_TYPE":0,"CLASSIFICATION_TYPE":"U","NORAD_CAT_ID":35686,"ELEMENT_SET_NO":999,"REV_AT_EPOCH":90153,"BSTAR":0.00014818153,"MEAN_MOTION_DOT":1.656e-5,"MEAN_MOTION_DDOT":0},{"OBJECT_NAME":"STARLINK-34684","OBJECT_ID":"2025-152W","EPOCH":"2026-03-09T20:20:40.288992","MEAN_MOTION":15.05599692,"ECCENTRICITY":0.00022225,"INCLINATION":97.6016,"RA_OF_ASC_NODE":285.7091,"ARG_OF_PERICENTER":78.8862,"MEAN_ANOMALY":281.2614,"EPHEMERIS_TYPE":0,"CLASSIFICATION_TYPE":"U","NORAD_CAT_ID":64862,"ELEMENT_SET_NO":999,"REV_AT_EPOCH":3544,"BSTAR":-0.0011068116,"MEAN_MOTION_DOT":-0.00015974,"MEAN_MOTION_DDOT":0}]
